{
  "type": "FeatureCollection",
  "features": [
    {
      "type": "Feature",
      "properties": {
        "norad_id": 31307,
        "name": "GALAXY 17 (G-17)",
        "group": "intelsat",
        "lat": 2.19795579268119,
        "lon": 143.56630762133764,
        "alt_km": 35791.1371352758,
        "timestamp": "2025-12-12T09:49:08.395484+00:00",
        "meta_object_name": "GALAXY 17 (G-17)",
        "meta_object_id": "2007-016B",
        "meta_epoch": "2025-12-12T02:48:18.393984",
        "meta_mean_motion": 1.00272492,
        "meta_eccentricity": 0.0005872,
        "meta_inclination": 2.4988,
        "meta_ra_of_asc_node": 82.2914,
        "meta_arg_of_pericenter": 164.0619,
        "meta_mean_anomaly": 151.8075,
        "meta_ephemeris_type": 0,
        "meta_classification_type": "U",
        "meta_norad_cat_id": 31307,
        "meta_element_set_no": 999,
        "meta_rev_at_epoch": 6792,
        "meta_bstar": 0,
        "meta_mean_motion_dot": -1.97e-06,
        "meta_mean_motion_ddot": 0,
        "tle_line1": "1 31307U 07016B   25346.11687956 -.00000197  00000+0  00000+0 0  9997",
        "tle_line2": "2 31307   2.4988  82.2914 0005872 164.0619 151.8075  1.00272492 67920"
      },
      "geometry": {
        "type": "Point",
        "coordinates": [
          143.56630762133764,
          2.19795579268119
        ]
      }
    },
    {
      "type": "Feature",
      "properties": {
        "norad_id": 31862,
        "name": "DIRECTV 10",
        "group": "intelsat",
        "lat": -0.0029636270649448584,
        "lon": 125.84842208840347,
        "alt_km": 35786.48067964296,
        "timestamp": "2025-12-12T09:49:08.395496+00:00",
        "meta_object_name": "DIRECTV 10",
        "meta_object_id": "2007-032A",
        "meta_epoch": "2025-12-11T14:44:08.030112",
        "meta_mean_motion": 1.00271436,
        "meta_eccentricity": 3.191e-05,
        "meta_inclination": 0.0124,
        "meta_ra_of_asc_node": 167.5307,
        "meta_arg_of_pericenter": 60.5816,
        "meta_mean_anomaly": 330.7109,
        "meta_ephemeris_type": 0,
        "meta_classification_type": "U",
        "meta_norad_cat_id": 31862,
        "meta_element_set_no": 999,
        "meta_rev_at_epoch": 4371,
        "meta_bstar": 0,
        "meta_mean_motion_dot": -9.6e-07,
        "meta_mean_motion_ddot": 0,
        "tle_line1": "1 31862U 07032A   25345.61398183 -.00000096  00000+0  00000+0 0  9994",
        "tle_line2": "2 31862   0.0124 167.5307 0000319  60.5816 330.7109  1.00271436 43719"
      },
      "geometry": {
        "type": "Point",
        "coordinates": [
          125.84842208840347,
          -0.0029636270649448584
        ]
      }
    },
    {
      "type": "Feature",
      "properties": {
        "norad_id": 32253,
        "name": "INTELSAT 11 (IS-11)",
        "group": "intelsat",
        "lat": 0.8006409541380836,
        "lon": 95.69852980458766,
        "alt_km": 36165.64855853365,
        "timestamp": "2025-12-12T09:49:08.395508+00:00",
        "meta_object_name": "INTELSAT 11 (IS-11)",
        "meta_object_id": "2007-044B",
        "meta_epoch": "2025-12-12T04:02:38.642784",
        "meta_mean_motion": 0.99048605,
        "meta_eccentricity": 0.0008913,
        "meta_inclination": 3.079,
        "meta_ra_of_asc_node": 80.9827,
        "meta_arg_of_pericenter": 165.6473,
        "meta_mean_anomaly": 123.3406,
        "meta_ephemeris_type": 0,
        "meta_classification_type": "U",
        "meta_norad_cat_id": 32253,
        "meta_element_set_no": 999,
        "meta_rev_at_epoch": 6659,
        "meta_bstar": 0,
        "meta_mean_motion_dot": 8.1e-07,
        "meta_mean_motion_ddot": 0,
        "tle_line1": "1 32253U 07044B   25346.16850281  .00000081  00000+0  00000+0 0  9998",
        "tle_line2": "2 32253   3.0790  80.9827 0008913 165.6473 123.3406  0.99048605 66599"
      },
      "geometry": {
        "type": "Point",
        "coordinates": [
          95.69852980458766,
          0.8006409541380836
        ]
      }
    },
    {
      "type": "Feature",
      "properties": {
        "norad_id": 32388,
        "name": "HORIZONS-2",
        "group": "intelsat",
        "lat": 2.0167215347029885,
        "lon": 154.77930036828687,
        "alt_km": 35795.9855952558,
        "timestamp": "2025-12-12T09:49:08.395520+00:00",
        "meta_object_name": "HORIZONS-2",
        "meta_object_id": "2007-063B",
        "meta_epoch": "2025-12-12T02:51:25.596000",
        "meta_mean_motion": 1.00269986,
        "meta_eccentricity": 0.0004917,
        "meta_inclination": 2.1201,
        "meta_ra_of_asc_node": 82.9671,
        "meta_arg_of_pericenter": 189.5346,
        "meta_mean_anomaly": 137.63,
        "meta_ephemeris_type": 0,
        "meta_classification_type": "U",
        "meta_norad_cat_id": 32388,
        "meta_element_set_no": 999,
        "meta_rev_at_epoch": 6593,
        "meta_bstar": 0,
        "meta_mean_motion_dot": -2.44e-06,
        "meta_mean_motion_ddot": 0,
        "tle_line1": "1 32388U 07063B   25346.11904625 -.00000244  00000+0  00000+0 0  9997",
        "tle_line2": "2 32388   2.1201  82.9671 0004917 189.5346 137.6300  1.00269986 65936"
      },
      "geometry": {
        "type": "Point",
        "coordinates": [
          154.77930036828687,
          2.0167215347029885
        ]
      }
    },
    {
      "type": "Feature",
      "properties": {
        "norad_id": 32729,
        "name": "DIRECTV 11",
        "group": "intelsat",
        "lat": -0.014516986249713888,
        "lon": 129.43700462875182,
        "alt_km": 35785.040174755,
        "timestamp": "2025-12-12T09:49:08.395536+00:00",
        "meta_object_name": "DIRECTV 11",
        "meta_object_id": "2008-013A",
        "meta_epoch": "2025-12-11T21:35:58.588224",
        "meta_mean_motion": 1.00271084,
        "meta_eccentricity": 5.41e-05,
        "meta_inclination": 0.0355,
        "meta_ra_of_asc_node": 183.5345,
        "meta_arg_of_pericenter": 2.2866,
        "meta_mean_anomaly": 119.8352,
        "meta_ephemeris_type": 0,
        "meta_classification_type": "U",
        "meta_norad_cat_id": 32729,
        "meta_element_set_no": 999,
        "meta_rev_at_epoch": 4371,
        "meta_bstar": 0,
        "meta_mean_motion_dot": -1.17e-06,
        "meta_mean_motion_ddot": 0,
        "tle_line1": "1 32729U 08013A   25345.89998366 -.00000117  00000+0  00000+0 0  9990",
        "tle_line2": "2 32729   0.0355 183.5345 0000541   2.2866 119.8352  1.00271084 43718"
      },
      "geometry": {
        "type": "Point",
        "coordinates": [
          129.43700462875182,
          -0.014516986249713888
        ]
      }
    },
    {
      "type": "Feature",
      "properties": {
        "norad_id": 32951,
        "name": "GALAXY 18 (G-18)",
        "group": "intelsat",
        "lat": 0.024308803207221542,
        "lon": 105.61471573561413,
        "alt_km": 35798.11602167344,
        "timestamp": "2025-12-12T09:49:08.395553+00:00",
        "meta_object_name": "GALAXY 18 (G-18)",
        "meta_object_id": "2008-024A",
        "meta_epoch": "2025-12-12T02:56:38.651712",
        "meta_mean_motion": 1.00271376,
        "meta_eccentricity": 0.0003045,
        "meta_inclination": 0.0198,
        "meta_ra_of_asc_node": 321.3607,
        "meta_arg_of_pericenter": 302.1483,
        "meta_mean_anomaly": 98.7187,
        "meta_ephemeris_type": 0,
        "meta_classification_type": "U",
        "meta_norad_cat_id": 32951,
        "meta_element_set_no": 999,
        "meta_rev_at_epoch": 4397,
        "meta_bstar": 0,
        "meta_mean_motion_dot": 3.5e-07,
        "meta_mean_motion_ddot": 0,
        "tle_line1": "1 32951U 08024A   25346.12266958  .00000035  00000+0  00000+0 0  9999",
        "tle_line2": "2 32951   0.0198 321.3607 0003045 302.1483  98.7187  1.00271376 43975"
      },
      "geometry": {
        "type": "Point",
        "coordinates": [
          105.61471573561413,
          0.024308803207221542
        ]
      }
    },
    {
      "type": "Feature",
      "properties": {
        "norad_id": 33153,
        "name": "INTELSAT 25 (IS-25)",
        "group": "intelsat",
        "lat": 2.0161407215881004,
        "lon": -162.88994522747404,
        "alt_km": 35776.68810931998,
        "timestamp": "2025-12-12T09:49:08.395564+00:00",
        "meta_object_name": "INTELSAT 25 (IS-25)",
        "meta_object_id": "2008-034A",
        "meta_epoch": "2025-12-12T03:03:31.935744",
        "meta_mean_motion": 1.00271762,
        "meta_eccentricity": 0.0005043,
        "meta_inclination": 2.2264,
        "meta_ra_of_asc_node": 82.6563,
        "meta_arg_of_pericenter": 179.0721,
        "meta_mean_anomaly": 193.7407,
        "meta_ephemeris_type": 0,
        "meta_classification_type": "U",
        "meta_norad_cat_id": 33153,
        "meta_element_set_no": 999,
        "meta_rev_at_epoch": 6382,
        "meta_bstar": 0,
        "meta_mean_motion_dot": -2.15e-06,
        "meta_mean_motion_ddot": 0,
        "tle_line1": "1 33153U 08034A   25346.12745296 -.00000215  00000+0  00000+0 0  9993",
        "tle_line2": "2 33153   2.2264  82.6563 0005043 179.0721 193.7407  1.00271762 63828"
      },
      "geometry": {
        "type": "Point",
        "coordinates": [
          -162.88994522747404,
          2.0161407215881004
        ]
      }
    }
  ]
}